start=new Date('2022-02-09T00:00:00.000Z').valueOf();
sats=[{"APOAPSIS":"548.481","RCS_SIZE":"LARGE","CLASSIFICATION_TYPE":"U","MEAN_MOTION_DOT":"0.00008065","SEMIMAJOR_AXIS":"6925.328","TLE_LINE2":"2 47744  53.0550  51.3560 0001859  66.2745 293.8439 15.06406625 53314","OBJECT_TYPE":"PAYLOAD","ECCENTRICITY":"0.00018590","ELEMENT_SET_NO":"999","CENTER_NAME":"EARTH","SITE":"AFETR","EPOCH":"2022-02-08T11:57:57.374208","EPHEMERIS_TYPE":"0","NORAD_CAT_ID":"47744","TLE_LINE1":"1 47744U 21017Y   22039.49858072  .00008065  00000-0  55962-3 0  9995","LAUNCH_DATE":"2021-03-04","FILE":"3295096","ARG_OF_PERICENTER":"66.2745","MEAN_ANOMALY":"293.8439","INCLINATION":"53.0550","REF_FRAME":"TEME","RA_OF_ASC_NODE":"51.3560","TIME_SYSTEM":"UTC","DECAY_DATE":null,"MEAN_ELEMENT_THEORY":"SGP4","OBJECT_NAME":"STARLINK-2158","OBJECT_ID":"2021-017Y","PERIAPSIS":"545.906","MEAN_MOTION":"15.06406625","COUNTRY_CODE":"US","GP_ID":"195548320","PERIOD":"95.592","BSTAR":"0.00055962000000","REV_AT_EPOCH":"5331","MEAN_MOTION_DDOT":"0.0000000000000"},{"MEAN_MOTION_DDOT":"0.0000000000000","REV_AT_EPOCH":"5311","BSTAR":"0.00009442800000","PERIOD":"95.593","GP_ID":"195547083","MEAN_MOTION":"15.06380679","COUNTRY_CODE":"US","PERIAPSIS":"546.104","OBJECT_ID":"2021-017Z","OBJECT_NAME":"STARLINK-2159","MEAN_ELEMENT_THEORY":"SGP4","DECAY_DATE":null,"TIME_SYSTEM":"UTC","REF_FRAME":"TEME","RA_OF_ASC_NODE":"61.5295","MEAN_ANOMALY":"292.6292","INCLINATION":"53.0551","FILE":"3295096","ARG_OF_PERICENTER":"67.4876","EPHEMERIS_TYPE":"0","NORAD_CAT_ID":"47745","LAUNCH_DATE":"2021-03-04","TLE_LINE1":"1 47745U 21017Z   22039.46081572  .00001125  00000-0  94428-4 0  9997","EPOCH":"2022-02-08T11:03:34.478208","SITE":"AFETR","ELEMENT_SET_NO":"999","CENTER_NAME":"EARTH","ECCENTRICITY":"0.00016870","OBJECT_TYPE":"PAYLOAD","TLE_LINE2":"2 47745  53.0551  61.5295 0001687  67.4876 292.6292 15.06380679 53113","MEAN_MOTION_DOT":"0.00001125","CLASSIFICATION_TYPE":"U","SEMIMAJOR_AXIS":"6925.408","RCS_SIZE":"LARGE","APOAPSIS":"548.441"},{"ARG_OF_PERICENTER":"64.7434","FILE":"3295096","INCLINATION":"53.0556","MEAN_ANOMALY":"295.3742","SITE":"AFETR","EPOCH":"2022-02-08T10:52:55.506144","LAUNCH_DATE":"2021-03-04","TLE_LINE1":"1 47746U 21017AA  22039.45342021  .00001621  00000-0  12769-3 0  9994","EPHEMERIS_TYPE":"0","NORAD_CAT_ID":"47746","DECAY_DATE":null,"OBJECT_NAME":"STARLINK-2160","MEAN_ELEMENT_THEORY":"SGP4","RA_OF_ASC_NODE":"61.5408","REF_FRAME":"TEME","TIME_SYSTEM":"UTC","TLE_LINE2":"2 47746  53.0556  61.5408 0001810  64.7434 295.3742 15.06401545 53108","RCS_SIZE":"LARGE","APOAPSIS":"548.462","SEMIMAJOR_AXIS":"6925.344","MEAN_MOTION_DOT":"0.00001621","CLASSIFICATION_TYPE":"U","CENTER_NAME":"EARTH","ELEMENT_SET_NO":"999","OBJECT_TYPE":"PAYLOAD","ECCENTRICITY":"0.00018100","GP_ID":"195547830","COUNTRY_CODE":"US","MEAN_MOTION":"15.06401545","BSTAR":"0.00012769000000","REV_AT_EPOCH":"5310","MEAN_MOTION_DDOT":"0.0000000000000","PERIOD":"95.592","OBJECT_ID":"2021-017AA","PERIAPSIS":"545.955"},{"TLE_LINE2":"2 47747  53.0559  51.5723 0001601  64.3395 295.7759 15.06388316 53282","CLASSIFICATION_TYPE":"U","MEAN_MOTION_DOT":"0.00000149","SEMIMAJOR_AXIS":"6925.384","RCS_SIZE":"LARGE","APOAPSIS":"548.358","ELEMENT_SET_NO":"999","CENTER_NAME":"EARTH","ECCENTRICITY":"0.00016010","OBJECT_TYPE":"PAYLOAD","MEAN_ANOMALY":"295.7759","INCLINATION":"53.0559","FILE":"3295096","ARG_OF_PERICENTER":"64.3395","EPHEMERIS_TYPE":"0","NORAD_CAT_ID":"47747","LAUNCH_DATE":"2021-03-04","TLE_LINE1":"1 47747U 21017AB  22039.45068360  .00000149  00000-0  28885-4 0  9997","EPOCH":"2022-02-08T10:48:59.063040","SITE":"AFETR","OBJECT_NAME":"STARLINK-2161","MEAN_ELEMENT_THEORY":"SGP4","DECAY_DATE":null,"TIME_SYSTEM":"UTC","REF_FRAME":"TEME","RA_OF_ASC_NODE":"51.5723","PERIAPSIS":"546.141","OBJECT_ID":"2021-017AB","GP_ID":"195548583","MEAN_MOTION":"15.06388316","COUNTRY_CODE":"US","MEAN_MOTION_DDOT":"0.0000000000000","REV_AT_EPOCH":"5328","BSTAR":"0.00002888500000","PERIOD":"95.593"},{"FILE":"3295096","ARG_OF_PERICENTER":"56.9966","MEAN_ANOMALY":"303.1169","INCLINATION":"53.0559","SITE":"AFETR","EPOCH":"2022-02-08T10:38:22.130016","NORAD_CAT_ID":"47748","EPHEMERIS_TYPE":"0","LAUNCH_DATE":"2021-03-04","TLE_LINE1":"1 47748U 21017AC  22039.44331169 -.00000141  00000-0  94512-5 0  9991","DECAY_DATE":null,"OBJECT_NAME":"STARLINK-2162","MEAN_ELEMENT_THEORY":"SGP4","REF_FRAME":"TEME","RA_OF_ASC_NODE":"51.6074","TIME_SYSTEM":"UTC","TLE_LINE2":"2 47748  53.0559  51.6074 0001523  56.9966 303.1169 15.06385565 53256","APOAPSIS":"548.313","RCS_SIZE":"LARGE","MEAN_MOTION_DOT":"-0.00000141","CLASSIFICATION_TYPE":"U","SEMIMAJOR_AXIS":"6925.393","ELEMENT_SET_NO":"999","CENTER_NAME":"EARTH","OBJECT_TYPE":"PAYLOAD","ECCENTRICITY":"0.00015230","GP_ID":"195548821","MEAN_MOTION":"15.06385565","COUNTRY_CODE":"US","BSTAR":"0.00000945120000","REV_AT_EPOCH":"5325","MEAN_MOTION_DDOT":"0.0000000000000","PERIOD":"95.593","OBJECT_ID":"2021-017AC","PERIAPSIS":"546.203"},{"PERIAPSIS":"546.065","OBJECT_ID":"2021-017AD","GP_ID":"195547584","MEAN_MOTION":"15.06398209","COUNTRY_CODE":"US","MEAN_MOTION_DDOT":"0.0000000000000","REV_AT_EPOCH":"5326","BSTAR":"0.00061228000000","PERIOD":"95.592","TLE_LINE2":"2 47749  53.0556  51.2257 0001667  57.3757 302.7393 15.06398209 53269","CLASSIFICATION_TYPE":"U","MEAN_MOTION_DOT":"0.00008850","SEMIMAJOR_AXIS":"6925.354","RCS_SIZE":"LARGE","APOAPSIS":"548.374","ELEMENT_SET_NO":"999","CENTER_NAME":"EARTH","OBJECT_TYPE":"PAYLOAD","ECCENTRICITY":"0.00016670","MEAN_ANOMALY":"302.7393","INCLINATION":"53.0556","FILE":"3295096","ARG_OF_PERICENTER":"57.3757","NORAD_CAT_ID":"47749","EPHEMERIS_TYPE":"0","LAUNCH_DATE":"2021-03-04","TLE_LINE1":"1 47749U 21017AD  22039.52438881  .00008850  00000-0  61228-3 0  9990","SITE":"AFETR","EPOCH":"2022-02-08T12:35:07.193184","MEAN_ELEMENT_THEORY":"SGP4","OBJECT_NAME":"STARLINK-2163","DECAY_DATE":null,"TIME_SYSTEM":"UTC","REF_FRAME":"TEME","RA_OF_ASC_NODE":"51.2257"},{"ARG_OF_PERICENTER":"64.0997","FILE":"3295096","INCLINATION":"53.0551","MEAN_ANOMALY":"296.0173","SITE":"AFETR","EPOCH":"2022-02-08T10:27:44.884224","LAUNCH_DATE":"2021-03-04","TLE_LINE1":"1 47750U 21017AE  22039.43593616  .00001893  00000-0  14597-3 0  9997","EPHEMERIS_TYPE":"0","NORAD_CAT_ID":"47750","DECAY_DATE":null,"MEAN_ELEMENT_THEORY":"SGP4","OBJECT_NAME":"STARLINK-2164","RA_OF_ASC_NODE":"51.6406","REF_FRAME":"TEME","TIME_SYSTEM":"UTC","TLE_LINE2":"2 47750  53.0551  51.6406 0001753  64.0997 296.0173 15.06394349 53254","RCS_SIZE":"LARGE","APOAPSIS":"548.445","SEMIMAJOR_AXIS":"6925.366","MEAN_MOTION_DOT":"0.00001893","CLASSIFICATION_TYPE":"U","CENTER_NAME":"EARTH","ELEMENT_SET_NO":"999","ECCENTRICITY":"0.00017530","OBJECT_TYPE":"PAYLOAD","GP_ID":"195547330","COUNTRY_CODE":"US","MEAN_MOTION":"15.06394349","BSTAR":"0.00014597000000","REV_AT_EPOCH":"5325","MEAN_MOTION_DDOT":"0.0000000000000","PERIOD":"95.592","OBJECT_ID":"2021-017AE","PERIAPSIS":"546.017"},{"ELEMENT_SET_NO":"999","CENTER_NAME":"EARTH","OBJECT_TYPE":"PAYLOAD","ECCENTRICITY":"0.00016960","TLE_LINE2":"2 47751  53.0547  41.4780 0001696  56.5478 303.5673 15.06395106 53406","RCS_SIZE":"LARGE","APOAPSIS":"548.403","CLASSIFICATION_TYPE":"U","MEAN_MOTION_DOT":"0.00005537","SEMIMAJOR_AXIS":"6925.364","DECAY_DATE":null,"MEAN_ELEMENT_THEORY":"SGP4","OBJECT_NAME":"STARLINK-2168","REF_FRAME":"TEME","RA_OF_ASC_NODE":"41.4780","TIME_SYSTEM":"UTC","FILE":"3295096","ARG_OF_PERICENTER":"56.5478","MEAN_ANOMALY":"303.5673","INCLINATION":"53.0547","SITE":"AFETR","EPOCH":"2022-02-08T11:11:31.909920","EPHEMERIS_TYPE":"0","NORAD_CAT_ID":"47751","LAUNCH_DATE":"2021-03-04","TLE_LINE1":"1 47751U 21017AF  22039.46634155  .00005537  00000-0  39037-3 0  9990","OBJECT_ID":"2021-017AF","PERIAPSIS":"546.054","BSTAR":"0.00039037000000","REV_AT_EPOCH":"5340","MEAN_MOTION_DDOT":"0.0000000000000","PERIOD":"95.592","GP_ID":"195548083","MEAN_MOTION":"15.06395106","COUNTRY_CODE":"US"},{"OBJECT_ID":"2021-017AG","PERIAPSIS":"546.236","BSTAR":"0.00017340000000","REV_AT_EPOCH":"5324","MEAN_MOTION_DDOT":"0.0000000000000","PERIOD":"95.593","GP_ID":"195548321","COUNTRY_CODE":"US","MEAN_MOTION":"15.06392982","CENTER_NAME":"EARTH","ELEMENT_SET_NO":"999","ECCENTRICITY":"0.00014420","OBJECT_TYPE":"PAYLOAD","TLE_LINE2":"2 47752  53.0538  56.3540 0001442  59.0976 301.0155 15.06392982 53245","RCS_SIZE":"LARGE","APOAPSIS":"548.234","SEMIMAJOR_AXIS":"6925.370","MEAN_MOTION_DOT":"0.00002302","CLASSIFICATION_TYPE":"U","DECAY_DATE":null,"MEAN_ELEMENT_THEORY":"SGP4","OBJECT_NAME":"STARLINK-2169","RA_OF_ASC_NODE":"56.3540","REF_FRAME":"TEME","TIME_SYSTEM":"UTC","ARG_OF_PERICENTER":"59.0976","FILE":"3295096","INCLINATION":"53.0538","MEAN_ANOMALY":"301.0155","EPOCH":"2022-02-08T11:59:57.236064","SITE":"AFETR","TLE_LINE1":"1 47752U 21017AG  22039.49996801  .00002302  00000-0  17340-3 0  9993","LAUNCH_DATE":"2021-03-04","NORAD_CAT_ID":"47752","EPHEMERIS_TYPE":"0"},{"ARG_OF_PERICENTER":"59.7315","FILE":"3295096","INCLINATION":"53.0563","MEAN_ANOMALY":"300.3840","EPOCH":"2022-02-08T13:00:20.877984","SITE":"AFETR","LAUNCH_DATE":"2021-03-04","TLE_LINE1":"1 47753U 21017AH  22039.54190831  .00000225  00000-0  33993-4 0  9994","NORAD_CAT_ID":"47753","EPHEMERIS_TYPE":"0","DECAY_DATE":null,"MEAN_ELEMENT_THEORY":"SGP4","OBJECT_NAME":"STARLINK-2170","RA_OF_ASC_NODE":"61.1493","REF_FRAME":"TEME","TIME_SYSTEM":"UTC","TLE_LINE2":"2 47753  53.0563  61.1493 0001674  59.7315 300.3840 15.06385830 53175","RCS_SIZE":"LARGE","APOAPSIS":"548.416","SEMIMAJOR_AXIS":"6925.392","MEAN_MOTION_DOT":"0.00000225","CLASSIFICATION_TYPE":"U","CENTER_NAME":"EARTH","ELEMENT_SET_NO":"999","ECCENTRICITY":"0.00016740","OBJECT_TYPE":"PAYLOAD","GP_ID":"195547084","COUNTRY_CODE":"US","MEAN_MOTION":"15.06385830","BSTAR":"0.00003399300000","REV_AT_EPOCH":"5317","MEAN_MOTION_DDOT":"0.0000000000000","PERIOD":"95.593","OBJECT_ID":"2021-017AH","PERIAPSIS":"546.098"}];
